BLUEWALKER-3            
1 53807U 22111AL  26205.33812588  .00006150  00000+0  16857-3 0  9994
2 53807  53.2272 219.4999 0004844 305.1345  54.9206 15.38689191215926
